[{"OBJECT_NAME":"STARLINK-36497","OBJECT_ID":"2026-002U","EPOCH":"2026-03-09T23:35:45.600288","MEAN_MOTION":15.27603135,"ECCENTRICITY":0.00012994,"INCLINATION":42.9996,"RA_OF_ASC_NODE":323.6163,"ARG_OF_PERICENTER":250.9128,"MEAN_ANOMALY":109.1583,"EPHEMERIS_TYPE":0,"CLASSIFICATION_TYPE":"U","NORAD_CAT_ID":67323,"ELEMENT_SET_NO":999,"REV_AT_EPOCH":1118,"BSTAR":0.0013495818,"MEAN_MOTION_DOT":0.00037089,"MEAN_MOTION_DDOT":0},{"OBJECT_NAME":"FENGYUN 1C DEB","OBJECT_ID":"1999-025FBF","EPOCH":"2026-03-06T07:33:49.292640","MEAN_MOTION":15.04395515,"ECCENTRICITY":0.01189701,"INCLINATION":98.9505,"RA_OF_ASC_NODE":84.7158,"ARG_OF_PERICENTER":75.0888,"MEAN_ANOMALY":286.3472,"EPHEMERIS_TYPE":0,"CLASSIFICATION_TYPE":"U","NORAD_CAT_ID":47029,"ELEMENT_SET_NO":999,"REV_AT_EPOCH":4330,"BSTAR":0.0027080259,"MEAN_MOTION_DOT":0.00044409,"MEAN_MOTION_DDOT":0}]
